{
  "type": "FeatureCollection",
  "features": [
    {
      "type": "Feature",
      "properties": {
        "norad_id": 41866,
        "name": "GOES 16",
        "group": "weather",
        "lat": 0.03832118746656127,
        "lon": 176.9162056639274,
        "alt_km": 35784.021749484426,
        "timestamp": "2025-12-04T13:52:00.091459+00:00",
        "meta_object_name": "GOES 16",
        "meta_object_id": "2016-071A",
        "meta_epoch": "2025-12-04T06:22:50.889792",
        "meta_mean_motion": 1.00270654,
        "meta_eccentricity": 0.00034612,
        "meta_inclination": 0.0616,
        "meta_ra_of_asc_node": 105.3349,
        "meta_arg_of_pericenter": 152.3416,
        "meta_mean_anomaly": 166.7054,
        "meta_ephemeris_type": 0,
        "meta_classification_type": "U",
        "meta_norad_cat_id": 41866,
        "meta_element_set_no": 999,
        "meta_rev_at_epoch": 3314,
        "meta_bstar": 0,
        "meta_mean_motion_dot": -7.5e-07,
        "meta_mean_motion_ddot": 0,
        "tle_line1": "1 41866U 16071A   25338.26586678 -.00000075  00000+0  00000+0 0  9990",
        "tle_line2": "2 41866   0.0616 105.3349 0003461 152.3416 166.7054  1.00270654 33146"
      },
      "geometry": {
        "type": "Point",
        "coordinates": [
          176.9162056639274,
          0.03832118746656127
        ]
      }
    },
    {
      "type": "Feature",
      "properties": {
        "norad_id": 41882,
        "name": "FENGYUN 4A",
        "group": "weather",
        "lat": -1.0746792288910518,
        "lon": 45.398646308276746,
        "alt_km": 35805.95155790876,
        "timestamp": "2025-12-04T13:52:00.091471+00:00",
        "meta_object_name": "FENGYUN 4A",
        "meta_object_id": "2016-077A",
        "meta_epoch": "2025-12-03T17:33:02.668032",
        "meta_mean_motion": 1.00278005,
        "meta_eccentricity": 0.00050458,
        "meta_inclination": 1.8246,
        "meta_ra_of_asc_node": 82.4798,
        "meta_arg_of_pericenter": 142.0307,
        "meta_mean_anomaly": 235.3013,
        "meta_ephemeris_type": 0,
        "meta_classification_type": "U",
        "meta_norad_cat_id": 41882,
        "meta_element_set_no": 999,
        "meta_rev_at_epoch": 3297,
        "meta_bstar": 0,
        "meta_mean_motion_dot": -3.4e-06,
        "meta_mean_motion_ddot": 0,
        "tle_line1": "1 41882U 16077A   25337.73128088 -.00000340  00000+0  00000+0 0  9997",
        "tle_line2": "2 41882   1.8246  82.4798 0005045 142.0307 235.3013  1.00278005 32976"
      },
      "geometry": {
        "type": "Point",
        "coordinates": [
          45.398646308276746,
          -1.0746792288910518
        ]
      }
    },
    {
      "type": "Feature",
      "properties": {
        "norad_id": 41884,
        "name": "CYGFM05",
        "group": "weather",
        "lat": 1.0498051662552779,
        "lon": -81.07546396752998,
        "alt_km": 421.9102013350848,
        "timestamp": "2025-12-04T13:52:00.091482+00:00",
        "meta_object_name": "CYGFM05",
        "meta_object_id": "2016-078A",
        "meta_epoch": "2025-12-03T18:31:05.681856",
        "meta_mean_motion": 15.47125161,
        "meta_eccentricity": 0.00094122,
        "meta_inclination": 34.9582,
        "meta_ra_of_asc_node": 105.6898,
        "meta_arg_of_pericenter": 97.1465,
        "meta_mean_anomaly": 263.0327,
        "meta_ephemeris_type": 0,
        "meta_classification_type": "U",
        "meta_norad_cat_id": 41884,
        "meta_element_set_no": 999,
        "meta_rev_at_epoch": 49837,
        "meta_bstar": 0.00060726194,
        "meta_mean_motion_dot": 0.00031867,
        "meta_mean_motion_ddot": 0,
        "tle_line1": "1 41884U 16078A   25337.77159354  .00031867  00000+0  60726-3 0  9996",
        "tle_line2": "2 41884  34.9582 105.6898 0009412  97.1465 263.0327 15.47125161498370"
      },
      "geometry": {
        "type": "Point",
        "coordinates": [
          -81.07546396752998,
          1.0498051662552779
        ]
      }
    },
    {
      "type": "Feature",
      "properties": {
        "norad_id": 41885,
        "name": "CYGFM04",
        "group": "weather",
        "lat": -12.479431669060727,
        "lon": 56.95008104214219,
        "alt_km": 422.665989915492,
        "timestamp": "2025-12-04T13:52:00.091494+00:00",
        "meta_object_name": "CYGFM04",
        "meta_object_id": "2016-078B",
        "meta_epoch": "2025-12-03T16:19:08.760864",
        "meta_mean_motion": 15.49783379,
        "meta_eccentricity": 0.00084885,
        "meta_inclination": 34.9344,
        "meta_ra_of_asc_node": 81.322,
        "meta_arg_of_pericenter": 126.9571,
        "meta_mean_anomaly": 233.1929,
        "meta_ephemeris_type": 0,
        "meta_classification_type": "U",
        "meta_norad_cat_id": 41885,
        "meta_element_set_no": 999,
        "meta_rev_at_epoch": 49853,
        "meta_bstar": 0.0011385967,
        "meta_mean_motion_dot": 0.0006591,
        "meta_mean_motion_ddot": 0,
        "tle_line1": "1 41885U 16078B   25337.67996251  .00065910  00000+0  11386-2 0  9994",
        "tle_line2": "2 41885  34.9344  81.3220 0008488 126.9571 233.1929 15.49783379498534"
      },
      "geometry": {
        "type": "Point",
        "coordinates": [
          56.95008104214219,
          -12.479431669060727
        ]
      }
    },
    {
      "type": "Feature",
      "properties": {
        "norad_id": 41886,
        "name": "CYGFM02",
        "group": "weather",
        "lat": -25.74213644918079,
        "lon": 30.193094486196973,
        "alt_km": 421.6812584673844,
        "timestamp": "2025-12-04T13:52:00.091505+00:00",
        "meta_object_name": "CYGFM02",
        "meta_object_id": "2016-078C",
        "meta_epoch": "2025-12-03T16:27:15.350976",
        "meta_mean_motion": 15.51121687,
        "meta_eccentricity": 0.00102169,
        "meta_inclination": 34.9434,
        "meta_ra_of_asc_node": 79.7274,
        "meta_arg_of_pericenter": 125.87,
        "meta_mean_anomaly": 234.2972,
        "meta_ephemeris_type": 0,
        "meta_classification_type": "U",
        "meta_norad_cat_id": 41886,
        "meta_element_set_no": 999,
        "meta_rev_at_epoch": 49866,
        "meta_bstar": 0.00061920212,
        "meta_mean_motion_dot": 0.00037463,
        "meta_mean_motion_ddot": 0,
        "tle_line1": "1 41886U 16078C   25337.68559434  .00037463  00000+0  61920-3 0  9996",
        "tle_line2": "2 41886  34.9434  79.7274 0010216 125.8700 234.2972 15.51121687498664"
      },
      "geometry": {
        "type": "Point",
        "coordinates": [
          30.193094486196973,
          -25.74213644918079
        ]
      }
    },
    {
      "type": "Feature",
      "properties": {
        "norad_id": 41887,
        "name": "CYGFM01",
        "group": "weather",
        "lat": -14.22575955437417,
        "lon": -55.87470318364388,
        "alt_km": 425.91278711321684,
        "timestamp": "2025-12-04T13:52:00.091515+00:00",
        "meta_object_name": "CYGFM01",
        "meta_object_id": "2016-078D",
        "meta_epoch": "2025-12-03T18:24:28.844928",
        "meta_mean_motion": 15.4768667,
        "meta_eccentricity": 0.00090329,
        "meta_inclination": 34.9412,
        "meta_ra_of_asc_node": 108.1317,
        "meta_arg_of_pericenter": 88.3823,
        "meta_mean_anomaly": 271.7933,
        "meta_ephemeris_type": 0,
        "meta_classification_type": "U",
        "meta_norad_cat_id": 41887,
        "meta_element_set_no": 999,
        "meta_rev_at_epoch": 49831,
        "meta_bstar": 0.00054644493,
        "meta_mean_motion_dot": 0.00029225,
        "meta_mean_motion_ddot": 0,
        "tle_line1": "1 41887U 16078D   25337.76700052  .00029225  00000+0  54644-3 0  9992",
        "tle_line2": "2 41887  34.9412 108.1317 0009032  88.3823 271.7933 15.47686670498317"
      },
      "geometry": {
        "type": "Point",
        "coordinates": [
          -55.87470318364388,
          -14.22575955437417
        ]
      }
    },
    {
      "type": "Feature",
      "properties": {
        "norad_id": 41888,
        "name": "CYGFM08",
        "group": "weather",
        "lat": -20.958498540581743,
        "lon": -60.81425372156144,
        "alt_km": 421.7672070776716,
        "timestamp": "2025-12-04T13:52:00.091526+00:00",
        "meta_object_name": "CYGFM08",
        "meta_object_id": "2016-078E",
        "meta_epoch": "2025-12-04T00:33:13.378464",
        "meta_mean_motion": 15.48884344,
        "meta_eccentricity": 0.00107018,
        "meta_inclination": 34.9454,
        "meta_ra_of_asc_node": 89.5504,
        "meta_arg_of_pericenter": 117.3678,
        "meta_mean_anomaly": 242.8134,
        "meta_ephemeris_type": 0,
        "meta_classification_type": "U",
        "meta_norad_cat_id": 41888,
        "meta_element_set_no": 999,
        "meta_rev_at_epoch": 49858,
        "meta_bstar": 0.00067089551,
        "meta_mean_motion_dot": 0.00037497,
        "meta_mean_motion_ddot": 0,
        "tle_line1": "1 41888U 16078E   25338.02307151  .00037497  00000+0  67090-3 0  9995",
        "tle_line2": "2 41888  34.9454  89.5504 0010701 117.3678 242.8134 15.48884344498580"
      },
      "geometry": {
        "type": "Point",
        "coordinates": [
          -60.81425372156144,
          -20.958498540581743
        ]
      }
    }
  ]
}